******** Week 220 almanac for PRN-95********
ID:                             95 
Health:                         0 
Eccentricity:                   0.00000000000000e+00
Time of Applicability(s):       259200
Orbital Inclination(rad):       9.77384381116825e-01
Rate of Right Ascen(r/s):       0.00000000000000e+00
SQRT(A)  (m 1/2):               5.44058820349418e+03
Right Ascen at Week(rad):       5.67232006898157e+00
Argument of Perigee(rad):       0.00000000000000e+00
Mean Anom(rad):                 -1.68773338667852e+00
Af0(s):                         0.00000000000000e+00
Af1(s/s):                       0.00000000000000e+00
week:                           220
******** Week 220 almanac for PRN-96********
ID:                             96 
Health:                         0 
Eccentricity:                   0.00000000000000e+00
Time of Applicability(s):       259200
Orbital Inclination(rad):       9.77384381116825e-01
Rate of Right Ascen(r/s):       0.00000000000000e+00
SQRT(A)  (m 1/2):               5.44058820349418e+03
Right Ascen at Week(rad):       5.67232006898157e+00
Argument of Perigee(rad):       0.00000000000000e+00
Mean Anom(rad):                 -9.02335223281068e-01
Af0(s):                         0.00000000000000e+00
Af1(s/s):                       0.00000000000000e+00
week:                           220
******** Week 220 almanac for PRN-97********
ID:                             97 
Health:                         0 
Eccentricity:                   0.00000000000000e+00
Time of Applicability(s):       259200
Orbital Inclination(rad):       9.77384381116825e-01
Rate of Right Ascen(r/s):       0.00000000000000e+00
SQRT(A)  (m 1/2):               5.44058820349418e+03
Right Ascen at Week(rad):       1.48352986419518e+00
Argument of Perigee(rad):       0.00000000000000e+00
Mean Anom(rad):                 1.44862327915529e-01
Af0(s):                         0.00000000000000e+00
Af1(s/s):                       0.00000000000000e+00
week:                           220
******** Week 220 almanac for PRN-98********
ID:                             98 
Health:                         0 
Eccentricity:                   0.00000000000000e+00
Time of Applicability(s):       259200
Orbital Inclination(rad):       9.77384381116825e-01
Rate of Right Ascen(r/s):       0.00000000000000e+00
SQRT(A)  (m 1/2):               5.44058820349418e+03
Right Ascen at Week(rad):       1.48352986419518e+00
Argument of Perigee(rad):       0.00000000000000e+00
Mean Anom(rad):                 9.30260491312978e-01
Af0(s):                         0.00000000000000e+00
Af1(s/s):                       0.00000000000000e+00
week:                           220
******** Week 220 almanac for PRN-99********
ID:                             99 
Health:                         0 
Eccentricity:                   0.00000000000000e+00
Time of Applicability(s):       259200
Orbital Inclination(rad):       9.77384381116825e-01
Rate of Right Ascen(r/s):       0.00000000000000e+00
SQRT(A)  (m 1/2):               5.44058820349418e+03
Right Ascen at Week(rad):       1.48352986419518e+00
Argument of Perigee(rad):       0.00000000000000e+00
Mean Anom(rad):                 1.71565865471043e+00
Af0(s):                         0.00000000000000e+00
Af1(s/s):                       0.00000000000000e+00
week:                           220
******** Week 220 almanac for PRN-100********
ID:                             100 
Health:                         0 
Eccentricity:                   0.00000000000000e+00
Time of Applicability(s):       259200
Orbital Inclination(rad):       9.77384381116825e-01
Rate of Right Ascen(r/s):       0.00000000000000e+00
SQRT(A)  (m 1/2):               5.44058820349418e+03
Right Ascen at Week(rad):       1.48352986419518e+00
Argument of Perigee(rad):       0.00000000000000e+00
Mean Anom(rad):                 2.50105681810787e+00
Af0(s):                         0.00000000000000e+00
Af1(s/s):                       0.00000000000000e+00
week:                           220
******** Week 220 almanac for PRN-101********
ID:                             101 
Health:                         0 
Eccentricity:                   0.00000000000000e+00
Time of Applicability(s):       259200
Orbital Inclination(rad):       9.77384381116825e-01
Rate of Right Ascen(r/s):       0.00000000000000e+00
SQRT(A)  (m 1/2):               5.44058820349418e+03
Right Ascen at Week(rad):       1.48352986419518e+00
Argument of Perigee(rad):       0.00000000000000e+00
Mean Anom(rad):                 -2.99673032567426e+00
Af0(s):                         0.00000000000000e+00
Af1(s/s):                       0.00000000000000e+00
week:                           220
******** Week 220 almanac for PRN-102********
ID:                             102 
Health:                         0 
Eccentricity:                   0.00000000000000e+00
Time of Applicability(s):       259200
Orbital Inclination(rad):       9.77384381116825e-01
Rate of Right Ascen(r/s):       0.00000000000000e+00
SQRT(A)  (m 1/2):               5.44058820349418e+03
Right Ascen at Week(rad):       1.48352986419518e+00
Argument of Perigee(rad):       0.00000000000000e+00
Mean Anom(rad):                 -2.21133216227682e+00
Af0(s):                         0.00000000000000e+00
Af1(s/s):                       0.00000000000000e+00
week:                           220
******** Week 220 almanac for PRN-103********
ID:                             103 
Health:                         0 
Eccentricity:                   0.00000000000000e+00
Time of Applicability(s):       259200
Orbital Inclination(rad):       9.77384381116825e-01
Rate of Right Ascen(r/s):       0.00000000000000e+00
SQRT(A)  (m 1/2):               5.44058820349418e+03
Right Ascen at Week(rad):       1.48352986419518e+00
Argument of Perigee(rad):       0.00000000000000e+00
Mean Anom(rad):                 -1.42593399887937e+00
Af0(s):                         0.00000000000000e+00
Af1(s/s):                       0.00000000000000e+00
week:                           220
******** Week 220 almanac for PRN-104********
ID:                             104 
Health:                         0 
Eccentricity:                   0.00000000000000e+00
Time of Applicability(s):       259200
Orbital Inclination(rad):       9.77384381116825e-01
Rate of Right Ascen(r/s):       0.00000000000000e+00
SQRT(A)  (m 1/2):               5.44058820349418e+03
Right Ascen at Week(rad):       1.48352986419518e+00
Argument of Perigee(rad):       0.00000000000000e+00
Mean Anom(rad):                 -6.40535835481919e-01
Af0(s):                         0.00000000000000e+00
Af1(s/s):                       0.00000000000000e+00
week:                           220
******** Week 220 almanac for PRN-105********
ID:                             105 
Health:                         0 
Eccentricity:                   0.00000000000000e+00
Time of Applicability(s):       259200
Orbital Inclination(rad):       9.77384381116825e-01
Rate of Right Ascen(r/s):       0.00000000000000e+00
SQRT(A)  (m 1/2):               5.44058820349418e+03
Right Ascen at Week(rad):       3.57792496658837e+00
Argument of Perigee(rad):       0.00000000000000e+00
Mean Anom(rad):                 1.39626340159546e-02
Af0(s):                         0.00000000000000e+00
Af1(s/s):                       0.00000000000000e+00
week:                           220
******** Week 220 almanac for PRN-106********
ID:                             106 
Health:                         0 
Eccentricity:                   0.00000000000000e+00
Time of Applicability(s):       259200
Orbital Inclination(rad):       9.77384381116825e-01
Rate of Right Ascen(r/s):       0.00000000000000e+00
SQRT(A)  (m 1/2):               5.44058820349418e+03
Right Ascen at Week(rad):       3.57792496658837e+00
Argument of Perigee(rad):       0.00000000000000e+00
Mean Anom(rad):                 -3.12763001957384e+00
Af0(s):                         0.00000000000000e+00
Af1(s/s):                       0.00000000000000e+00
week:                           220
******** Week 220 almanac for PRN-107********
ID:                             107 
Health:                         0 
Eccentricity:                   0.00000000000000e+00
Time of Applicability(s):       259200
Orbital Inclination(rad):       9.77384381116825e-01
Rate of Right Ascen(r/s):       0.00000000000000e+00
SQRT(A)  (m 1/2):               5.44058820349418e+03
Right Ascen at Week(rad):       5.67232006898157e+00
Argument of Perigee(rad):       0.00000000000000e+00
Mean Anom(rad):                 1.84655834861000e+00
Af0(s):                         0.00000000000000e+00
Af1(s/s):                       0.00000000000000e+00
week:                           220
******** Week 220 almanac for PRN-108********
ID:                             108 
Health:                         0 
Eccentricity:                   0.00000000000000e+00
Time of Applicability(s):       259200
Orbital Inclination(rad):       9.77384381116825e-01
Rate of Right Ascen(r/s):       0.00000000000000e+00
SQRT(A)  (m 1/2):               5.44058820349418e+03
Right Ascen at Week(rad):       5.67232006898157e+00
Argument of Perigee(rad):       0.00000000000000e+00
Mean Anom(rad):                 -1.29503430497979e+00
Af0(s):                         0.00000000000000e+00
Af1(s/s):                       0.00000000000000e+00
week:                           220
